GHGSAT-C1               
1 46278U 20061G   26189.93092519  .00030603  00000+0  22476-3 0  9995
2 46278  97.2093 275.7942 0000520 173.5874 186.5397 15.73074340326898
GHGSAT-C2               
1 47509U 21006DA  26189.68612673  .00004386  00000+0  11922-3 0  9997
2 47509  97.2138 236.5828 0006893  92.8516 267.3518 15.38056166303153
GHGSAT-C3               
1 52737U 22057F   26189.95417046  .00004416  00000+0  13409-3 0  9996
2 52737  97.6620 336.4330 0006794  54.3988 305.7887 15.34627049228877
GHGSAT-C5               
1 52744U 22057N   26189.92821817  .00004352  00000+0  13227-3 0  9993
2 52744  97.6707 338.0053 0007462  51.5773 308.6138 15.34603738228875
GHGSAT-C4               
1 52746U 22057Q   26189.90963812  .00004440  00000+0  13486-3 0  9990
2 52746  97.6547 335.1961 0006731  39.9363 320.2374 15.34614012228877
GHGSAT-C8               
1 56186U 23054J   26189.99988157  .00011489  00000+0  18157-3 0  9999
2 56186  97.2961  99.6018 0003871  24.6229 335.5209 15.53634440181821
GHGSAT-C6               
1 56204U 23054AC  26189.77277740  .00012445  00000+0  19671-3 0  9990
2 56204  97.3025 100.0683 0004126 341.0015  19.1084 15.53609368181807
GHGSAT-C7               
1 56209U 23054AH  26189.95146557  .00007808  00000+0  13924-3 0  9998
2 56209  97.2977  98.6035 0005584 332.8412  27.2547 15.50352207181761
GHGSAT-C12              
1 64529U 25135B   26189.90174669  .00002164  00000+0  10242-3 0  9994
2 64529  97.4762 304.5194 0006474  97.8023 262.3947 15.20418896 58122
GHGSAT-C13              
1 64548U 25135W   26189.89340092  .00003700  00000+0  16827-3 0  9990
2 64548  97.4790 305.1150 0002166  74.1727 285.9747 15.21357748 58157
