{"fetched_at":"2026-07-09T08:00:12.173Z","source":"https://celestrak.org/NORAD/elements/gp.php?NAME=GHGSAT&FORMAT=JSON","constellation":"ghgsat","records":[{"OBJECT_NAME":"GHGSAT-C1","OBJECT_ID":"2020-061G","EPOCH":"2026-07-08T22:20:31.936416","CLASSIFICATION_TYPE":"U","MEAN_MOTION":15.7307434,"ECCENTRICITY":0.000052,"INCLINATION":97.2093,"RA_OF_ASC_NODE":275.7942,"ARG_OF_PERICENTER":173.5874,"MEAN_ANOMALY":186.5397,"EPHEMERIS_TYPE":0,"NORAD_CAT_ID":46278,"ELEMENT_SET_NO":999,"REV_AT_EPOCH":32689,"BSTAR":0.00022475668,"MEAN_MOTION_DOT":0.00030603,"MEAN_MOTION_DDOT":0},{"OBJECT_NAME":"GHGSAT-C2","OBJECT_ID":"2021-006DA","EPOCH":"2026-07-08T16:28:01.349472","CLASSIFICATION_TYPE":"U","MEAN_MOTION":15.38056166,"ECCENTRICITY":0.00068937,"INCLINATION":97.2138,"RA_OF_ASC_NODE":236.5828,"ARG_OF_PERICENTER":92.8516,"MEAN_ANOMALY":267.3518,"EPHEMERIS_TYPE":0,"NORAD_CAT_ID":47509,"ELEMENT_SET_NO":999,"REV_AT_EPOCH":30315,"BSTAR":0.00011922291,"MEAN_MOTION_DOT":0.00004386,"MEAN_MOTION_DDOT":0},{"OBJECT_NAME":"GHGSAT-C3","OBJECT_ID":"2022-057F","EPOCH":"2026-07-08T22:54:00.327744","CLASSIFICATION_TYPE":"U","MEAN_MOTION":15.34627049,"ECCENTRICITY":0.00067943,"INCLINATION":97.662,"RA_OF_ASC_NODE":336.433,"ARG_OF_PERICENTER":54.3988,"MEAN_ANOMALY":305.7887,"EPHEMERIS_TYPE":0,"NORAD_CAT_ID":52737,"ELEMENT_SET_NO":999,"REV_AT_EPOCH":22887,"BSTAR":0.00013409284,"MEAN_MOTION_DOT":0.00004416,"MEAN_MOTION_DDOT":0},{"OBJECT_NAME":"GHGSAT-C5","OBJECT_ID":"2022-057N","EPOCH":"2026-07-08T22:16:38.049888","CLASSIFICATION_TYPE":"U","MEAN_MOTION":15.34603738,"ECCENTRICITY":0.00074624,"INCLINATION":97.6707,"RA_OF_ASC_NODE":338.0053,"ARG_OF_PERICENTER":51.5773,"MEAN_ANOMALY":308.6138,"EPHEMERIS_TYPE":0,"NORAD_CAT_ID":52744,"ELEMENT_SET_NO":999,"REV_AT_EPOCH":22887,"BSTAR":0.00013226836,"MEAN_MOTION_DOT":0.00004352,"MEAN_MOTION_DDOT":0},{"OBJECT_NAME":"GHGSAT-C4","OBJECT_ID":"2022-057Q","EPOCH":"2026-07-08T21:49:52.733568","CLASSIFICATION_TYPE":"U","MEAN_MOTION":15.34614012,"ECCENTRICITY":0.00067311,"INCLINATION":97.6547,"RA_OF_ASC_NODE":335.1961,"ARG_OF_PERICENTER":39.9363,"MEAN_ANOMALY":320.2374,"EPHEMERIS_TYPE":0,"NORAD_CAT_ID":52746,"ELEMENT_SET_NO":999,"REV_AT_EPOCH":22887,"BSTAR":0.00013485956,"MEAN_MOTION_DOT":0.0000444,"MEAN_MOTION_DDOT":0},{"OBJECT_NAME":"GHGSAT-C8","OBJECT_ID":"2023-054J","EPOCH":"2026-07-08T23:59:49.767648","CLASSIFICATION_TYPE":"U","MEAN_MOTION":15.5363444,"ECCENTRICITY":0.00038717,"INCLINATION":97.2961,"RA_OF_ASC_NODE":99.6018,"ARG_OF_PERICENTER":24.6229,"MEAN_ANOMALY":335.5209,"EPHEMERIS_TYPE":0,"NORAD_CAT_ID":56186,"ELEMENT_SET_NO":999,"REV_AT_EPOCH":18182,"BSTAR":0.00018156798,"MEAN_MOTION_DOT":0.00011489,"MEAN_MOTION_DDOT":0},{"OBJECT_NAME":"GHGSAT-C6","OBJECT_ID":"2023-054AC","EPOCH":"2026-07-08T18:32:47.967360","CLASSIFICATION_TYPE":"U","MEAN_MOTION":15.53609368,"ECCENTRICITY":0.00041266,"INCLINATION":97.3025,"RA_OF_ASC_NODE":100.0683,"ARG_OF_PERICENTER":341.0015,"MEAN_ANOMALY":19.1084,"EPHEMERIS_TYPE":0,"NORAD_CAT_ID":56204,"ELEMENT_SET_NO":999,"REV_AT_EPOCH":18180,"BSTAR":0.00019671261,"MEAN_MOTION_DOT":0.00012445,"MEAN_MOTION_DDOT":0},{"OBJECT_NAME":"GHGSAT-C7","OBJECT_ID":"2023-054AH","EPOCH":"2026-07-08T22:50:06.625248","CLASSIFICATION_TYPE":"U","MEAN_MOTION":15.50352207,"ECCENTRICITY":0.00055848,"INCLINATION":97.2977,"RA_OF_ASC_NODE":98.6035,"ARG_OF_PERICENTER":332.8412,"MEAN_ANOMALY":27.2547,"EPHEMERIS_TYPE":0,"NORAD_CAT_ID":56209,"ELEMENT_SET_NO":999,"REV_AT_EPOCH":18176,"BSTAR":0.00013923977,"MEAN_MOTION_DOT":0.00007808,"MEAN_MOTION_DDOT":0},{"OBJECT_NAME":"GHGSAT-C12","OBJECT_ID":"2025-135B","EPOCH":"2026-07-08T21:38:30.914016","CLASSIFICATION_TYPE":"U","MEAN_MOTION":15.20418896,"ECCENTRICITY":0.00064741,"INCLINATION":97.4762,"RA_OF_ASC_NODE":304.5194,"ARG_OF_PERICENTER":97.8023,"MEAN_ANOMALY":262.3947,"EPHEMERIS_TYPE":0,"NORAD_CAT_ID":64529,"ELEMENT_SET_NO":999,"REV_AT_EPOCH":5812,"BSTAR":0.00010242355,"MEAN_MOTION_DOT":0.00002164,"MEAN_MOTION_DDOT":0},{"OBJECT_NAME":"GHGSAT-C13","OBJECT_ID":"2025-135W","EPOCH":"2026-07-08T21:26:29.839488","CLASSIFICATION_TYPE":"U","MEAN_MOTION":15.21357748,"ECCENTRICITY":0.00021661,"INCLINATION":97.479,"RA_OF_ASC_NODE":305.115,"ARG_OF_PERICENTER":74.1727,"MEAN_ANOMALY":285.9747,"EPHEMERIS_TYPE":0,"NORAD_CAT_ID":64548,"ELEMENT_SET_NO":999,"REV_AT_EPOCH":5815,"BSTAR":0.00016826522,"MEAN_MOTION_DOT":0.000037,"MEAN_MOTION_DDOT":0}]}
